#cP2024  9 19  0  0  0.00000000     288   u+U IGS20 FIT  GFZ                    
## 2332 345600.00000000   300.00000000 60572 0.0000000000000                    
+   78   E02E03E04E05E06E07E08E09E10E11E12E13E14E15E18E19E21                    
+        E24E25E26E27E29E30E31E33E34E36G02G03G04G05G06G07G08                    
+        G09G10G11G12G13G14G15G16G17G18G19G20G21G22G23G24G25                    
+        G26G27G28G29G30G31G32R01R02R03R04R05R07R08R09R11R12                    
+        R14R15R16R17R18R19R20R21R22R24 00 00 00 00 00 00 00                    
++         5  6  5  6  7  5  5  6  6  5  5  6  6  6  5  7  6                    
++         7  6  6  5  6  8  7  6  5  7  5  6  5  8  6  6  5                    
++         5  5  5  6  6  5  7  8  0  6  7  7  5  5  5  6  7                    
++         8  5  5  7  6  6  5  5  6  5  6  7  6  6  5  6  6                    
++         8  9  6  7  7 10  8  6  5  7  0  0  0  0  0  0  0                    
%c M  cc GPS ccc cccc cccc cccc cccc ccccc ccccc ccccc ccccc                    
%c cc cc ccc ccc cccc cccc cccc cccc ccccc ccccc ccccc ccccc                    
%f  1.2500000  1.025000000  0.00000000000  0.000000000000000                    
%f  0.0000000  0.000000000  0.00000000000  0.000000000000000                    
%i    0    0    0    0      0      0      0      0         0                    
%i    0    0    0    0      0      0      0      0         0                    
/* PCV:IGS20_2317 OL/AL:FES2014b NONE     YN CLK:CoN ORB:CoN                    
/*     GeoForschungsZentrum Potsdam                                             
/*                                                                              
/*                                                                              
*  2024  9 19  3 25  0.00000000                                                 
PE02  19117.063199 -10759.631693  19880.323581    160.403604                    
PE03   9736.516491 -17331.878472 -21945.192079   -141.330446                    
PE04   5041.761201  28132.156603   7697.097918    -36.495204                    
PE05  18420.968321   3411.000010 -22919.864171   4785.457391                    
PE06  11659.678026  27154.232935  -1767.447813    -27.267122                    
PE07 -16266.550337 -22527.578331  10215.348275   -142.820638                    
PE08  -4464.296142 -28008.217527  -8500.888501   -337.852587                    
PE09  16174.124286  22588.021331 -10201.124331   -594.994648                    
PE10   2339.211841  19569.009016  22075.812192   -657.599459                    
PE11  11337.239720  11454.339497  24819.508813   1611.992935                    
PE12  -5911.655236  23934.593559  16383.908894  -1216.167352                    
PE13 -10831.990815 -11916.151124 -24832.244893    -24.916680                    
PE14  -9343.633769 -30113.695831   2635.254545    235.796524                    
PE15   6509.162222 -24100.148509 -15902.478287   -127.986060                    
PE18   2446.429678  23425.819220  -6887.520927    563.497661                    
PE19 -10916.775737  15468.908999  22753.679325    644.435532                    
PE21 -29199.246958  -1547.404330  -4601.968909   -617.633671                    
PE24  22305.742928  13571.669369 -13972.070700   -995.424844                    
PE25  29246.148657   1836.984675   4200.278559      9.230474                    
PE26 -21728.724315   7408.117974 -18673.160841   -265.129626                    
PE27 -22436.168052 -13416.548743  13885.106145   -456.131031                    
PE29 -18464.293758  -2931.693816  22936.815324    -31.265266                    
PE30  -2506.001446 -17277.139421  23897.976435   -731.572311                    
PE31   2551.419185  17215.592134 -23932.352960    -36.353752                    
PE33 -19928.595511  21712.849373  -2654.927002     15.406732                    
PE34  19711.794142 -21984.965009   2207.418866   -135.150447                    
PE36  21513.268146  -6974.005353  19102.204734   -285.305465                    
PG02  14399.008929 -22072.235188   1581.030697   -355.084713                    
PG03  10408.275846 -12859.203375 -20919.174862    542.599711                    
PG04   3619.742531 -20651.558146 -16204.933801    446.310559                    
PG05 -23922.871716   5625.234274   9978.117559   -187.058731                    
PG06 -13022.278584  -6766.621638 -22077.477120     21.088156                    
PG07   1679.423517 -21544.400547  15657.706599    -36.224119                    
PG08  11602.735724 -10659.084285  21217.011786    357.261956                    
PG09  -5892.977736 -24694.253662  -7788.365506    362.531885                    
PG10  21029.365215  10626.139626  12800.054788   -129.914323                    
PG11 -19869.007626   7469.714330 -15892.392636   -736.104205                    
PG12 -14648.993636  11238.217639 -19356.126104   -539.089561                    
PG13 -14989.746304   1407.281004  21669.834970    677.229880                    
PG14 -17702.161865 -13095.992617  15057.004123    498.762386                    
PG15  -9916.667984  12581.075441  20646.003341    205.923521                    
PG16  25950.361666    336.342720   6320.271015   -177.237748                    
PG17 -13743.095719 -21128.764438  -7661.448026 999999.999999                    
PG18  -2073.952632  20990.229009  16024.802342   -654.126151                    
PG19 -16117.956053 -15049.760810 -15258.506160    539.888135                    
PG20 -26415.329203   1385.661577  -1089.572968    370.496667                    
PG21  16734.474506 -18714.069199   7176.243534    101.475920                    
PG22 -22718.662229 -10550.645967   8771.187167    -63.230206                    
PG23   8862.239236  14420.860416  20553.466704    323.287819                    
PG24 -14577.354529  21747.075739   2414.415319   -486.553754                    
PG25   -916.390542  15594.854807 -21824.346173    499.627316                    
PG26  25587.041298   4978.323383  -6212.019802     75.699769                    
PG27  16519.855318   1438.227657  20544.884394    -33.882512                    
PG28  12218.113216   9055.772402 -21788.461719   -416.294035                    
PG29   1712.041625  24530.297045  -9919.784755   -576.932260                    
PG30  -7592.586027 -15277.642186  20447.820046   -318.633437                    
PG31  18930.681830  -3116.223895 -18758.109697   -224.524113                    
PG32  15730.113258  19662.815122  -8551.761211   -595.779804                    
PR01 -10927.646362   4464.900097  22606.777820     98.270630                    
PR02   3164.316093  16132.982687  19568.210207    -24.716744                    
PR03  15911.284684  19262.995601   5347.705899    107.836557                    
PR04  19361.084344  12084.411277 -11390.702413    255.371172                    
PR05  12701.043104  -1613.965667 -22062.788973    137.878731                    
PR07 -16165.492073 -19120.927782  -4683.648840     91.195308                    
PR08 -19475.449705 -11610.742635  11699.202834     -6.394808                    
PR09   9365.579000 -13162.706710  19732.828336    209.936662                    
PR11 -21554.258962   -566.687667  13657.766549     11.489991                    
PR12 -23144.449873   9202.558326  -5451.710116     45.027578                    
PR14   8707.773223   8754.787995 -22301.507491     26.953273                    
PR15  22421.657341   -209.233604 -12130.774278     75.751930                    
PR16  23162.409851  -9205.430541   5347.529666     29.257546                    
PR17   2871.880573  18963.474856  16799.545941    123.269957                    
PR18   9857.232659   3797.830691  23237.104949    162.753737                    
PR19  12550.500375 -11454.783263  19033.760779   -291.865035                    
PR20   7878.509537 -24243.175863    325.778249   -119.281070                    
PR21  -2219.612144 -19540.456427 -16264.300348   -135.648584                    
PR22 -10548.935027  -2815.267178 -23024.652465     43.445905                    
PR24  -6477.208311  24656.105109    257.061277    -72.586003                    
EOF                                     
